NORAD_CAT_ID,OBJECT_NAME,OBJECT_TYPE,EPOCH,MEAN_MOTION,ECCENTRICITY,INCLINATION,RA_OF_ASC_NODE,ARG_OF_PERICENTER,MEAN_ANOMALY,BSTAR,MEAN_MOTION_DOT,MEAN_MOTION_DDOT,TLE_LINE0,TLE_LINE1,TLE_LINE2,SEMIMAJOR_AXIS,PERIOD,APOGEE,PERIGEE,DECAYED
55393.0,STARLINK-4786,PAYLOAD,2024-05-06 05:52:06,14.98348117,0.0003161,69.9985,319.7815,273.2989,86.7809,-0.00022911,-2.827e-05,0.0,0 STARLINK-4786,1 55393U 23014C   24127.24452222 -.00002827  00000-0 -22911-3 0  9993,2 55393  69.9985 319.7815 0003161 273.2989  86.7809 14.98348117 70391,6950.137,96.106,574.199,569.805,0.0
55393.0,STARLINK-4786,PAYLOAD,2024-05-06 13:52:47,14.98334475,0.0002933,69.9989,318.9405,268.4239,91.6584,1.3733e-05,7.1e-07,0.0,0 STARLINK-4786,1 55393U 23014C   24127.57832564  .00000071  00000-0  13733-4 0  9990,2 55393  69.9989 318.9405 0002933 268.4239  91.6584 14.98334475 71388,6950.179,96.107,574.083,570.006,0.0
55393.0,STARLINK-4786,PAYLOAD,2024-05-06 20:17:25,14.98269576,0.0002749,69.9988,318.2671,273.3526,86.7318,-0.00067575,-8.134e-05,0.0,0 STARLINK-4786,1 55393U 23014C   24127.84542957 -.00008134  00000-0 -67575-3 0  9996,2 55393  69.9988 318.2671 0002749 273.3526  86.7318 14.98269576 70483,6950.38,96.111,574.155,570.334,0.0
55393.0,STARLINK-4786,PAYLOAD,2024-05-06 21:53:29,14.9832429,0.0002926,69.999,318.0991,260.9702,99.1126,-5.6033e-05,-7.61e-06,0.0,0 STARLINK-4786,1 55393U 23014C   24127.91214163 -.00000761  00000-0 -56033-4 0  9995,2 55393  69.9990 318.0991 0002926 260.9702  99.1126 14.98324290 71430,6950.211,96.107,574.109,570.042,0.0
55393.0,STARLINK-4786,PAYLOAD,2024-05-07 04:18:01,14.9832791,0.0002893,69.9987,317.4254,276.587,83.496,-9.4984e-06,-2.06e-06,0.0,0 STARLINK-4786,1 55393U 23014C   24128.17918051 -.00000206  00000-0 -94984-5 0  9993,2 55393  69.9987 317.4254 0002893 276.5870  83.4960 14.98327910 70537,6950.199,96.107,574.075,570.054,0.0
55393.0,STARLINK-4786,PAYLOAD,2024-05-07 13:54:49,14.98330462,0.0003208,69.9979,316.4147,271.7182,88.361,2.1578e-05,1.64e-06,0.0,0 STARLINK-4786,1 55393U 23014C   24128.57973761  .00000164  00000-0  21578-4 0  9995,2 55393  69.9979 316.4147 0003208 271.7182  88.3610 14.98330462 71535,6950.191,96.107,574.286,569.827,0.0
55393.0,STARLINK-4786,PAYLOAD,2024-05-07 20:19:21,14.98334874,0.0003084,69.9983,315.7417,270.3608,89.7198,7.3584e-05,7.85e-06,0.0,0 STARLINK-4786,1 55393U 23014C   24128.84677325  .00000785  00000-0  73584-4 0  9995,2 55393  69.9983 315.7417 0003084 270.3608  89.7198 14.98334874 70639,6950.178,96.107,574.186,569.899,0.0
55393.0,STARLINK-4786,PAYLOAD,2024-05-07 21:55:29,14.983358,0.0003074,69.9984,315.5733,270.488,89.5926,8.397e-05,9.09e-06,0.0,0 STARLINK-4786,1 55393U 23014C   24128.91353232  .00000909  00000-0  83970-4 0  9999,2 55393  69.9984 315.5733 0003074 270.4880  89.5926 14.98335800 71583,6950.175,96.107,574.176,569.903,0.0
55393.0,STARLINK-4786,PAYLOAD,2024-05-08 13:56:49,14.98335338,0.0003095,69.9983,313.8902,270.0013,90.0791,0.00010627,1.175e-05,0.0,0 STARLINK-4786,1 55393U 23014C   24129.58113091  .00001175  00000-0  10627-3 0  9994,2 55393  69.9983 313.8902 0003095 270.0013  90.0791 14.98335338 71682,6950.176,96.107,574.192,569.89,0.0
55393.0,STARLINK-4786,PAYLOAD,2024-05-08 20:21:22,14.98306203,0.0002982,69.9985,313.2168,273.0119,87.0698,0.00066736,7.874e-05,0.0,0 STARLINK-4786,1 55393U 23014C   24129.84817379  .00007874  00000-0  66736-3 0  9997,2 55393  69.9985 313.2168 0002982 273.0119  87.0698 14.98306203 70787,6950.266,96.109,574.204,570.059,0.0
55393.0,STARLINK-4786,PAYLOAD,2024-05-08 21:57:30,14.98307754,0.0003003,69.9984,313.0485,272.8677,87.2138,0.00066976,7.903e-05,0.0,0 STARLINK-4786,1 55393U 23014C   24129.91493354  .00007903  00000-0  66976-3 0  9997,2 55393  69.9984 313.0485 0003003 272.8677  87.2138 14.98307754 71736,6950.262,96.108,574.214,570.04,0.0
55393.0,STARLINK-4786,PAYLOAD,2024-05-09 12:22:42,14.9833779,0.0003046,69.9987,311.5334,270.0691,90.0119,2.2124e-05,1.71e-06,0.0,0 STARLINK-4786,1 55393U 23014C   24130.51577135  .00000171  00000-0  22124-4 0  9993,2 55393  69.9987 311.5334 0003046 270.0691  90.0119 14.98337790 70887,6950.169,96.106,574.151,569.917,0.0
55393.0,STARLINK-4786,PAYLOAD,2024-05-09 13:58:50,14.98337295,0.0003049,69.9986,311.3651,270.0757,90.0053,1.6149e-05,1e-06,0.0,0 STARLINK-4786,1 55393U 23014C   24130.58253141  .00000100  00000-0  16149-4 0  9990,2 55393  69.9986 311.3651 0003049 270.0757  90.0053 14.98337295 71835,6950.17,96.107,574.154,569.916,0.0
55393.0,STARLINK-4786,PAYLOAD,2024-05-09 21:59:30,14.98343027,0.000302,69.9987,310.5235,270.1677,89.9136,3.6207e-05,3.39e-06,0.0,0 STARLINK-4786,1 55393U 23014C   24130.91632511  .00000339  00000-0  36207-4 0  9990,2 55393  69.9987 310.5235 0003020 270.1677  89.9136 14.98343027 71880,6950.153,96.106,574.117,569.919,0.0
55393.0,STARLINK-4786,PAYLOAD,2024-05-10 12:24:43,14.98335544,0.000295,69.9988,309.0084,270.1533,89.9288,-8.5582e-05,-1.114e-05,0.0,0 STARLINK-4786,1 55393U 23014C   24131.51716994 -.00001114  00000-0 -85582-4 0  9999,2 55393  69.9988 309.0084 0002950 270.1533  89.9288 14.98335544 71038,6950.176,96.107,574.091,569.99,0.0
55393.0,STARLINK-4786,PAYLOAD,2024-05-10 14:00:51,14.98334733,0.0002956,69.9988,308.84,270.1388,89.9432,-9.2204e-05,-1.193e-05,0.0,0 STARLINK-4786,1 55393U 23014C   24131.58393031 -.00001193  00000-0 -92204-4 0  9995,2 55393  69.9988 308.8400 0002956 270.1388  89.9432 14.98334733 71985,6950.178,96.107,574.098,569.989,0.0
55393.0,STARLINK-4786,PAYLOAD,2024-05-10 20:25:24,14.98326099,0.0003081,69.999,308.1675,270.6494,89.4312,-0.00016325,-2.04e-05,0.0,0 STARLINK-4786,1 55393U 23014C   24131.85097726 -.00002040  00000-0 -16325-3 0  9998,2 55393  69.9990 308.1675 0003081 270.6494  89.4312 14.98326099 71087,6950.205,96.107,574.211,569.929,0.0
55393.0,STARLINK-4786,PAYLOAD,2024-05-10 22:01:32,14.98326894,0.0003411,69.9974,307.9977,274.8856,85.1913,-0.00018508,-2.301e-05,0.0,0 STARLINK-4786,1 55393U 23014C   24131.91773733 -.00002301  00000-0 -18508-3 0  9999,2 55393  69.9974 307.9977 0003411 274.8856  85.1913 14.98326894 72035,6950.202,96.107,574.438,569.697,0.0
55393.0,STARLINK-4786,PAYLOAD,2024-05-11 12:26:43,14.98341516,0.0002717,70.0004,306.4865,263.4782,96.6068,0.00012192,1.362e-05,0.0,0 STARLINK-4786,1 55393U 23014C   24132.51855783  .00001362  00000-0  12192-3 0  9999,2 55393  70.0004 306.4865 0002717 263.4782  96.6068 14.98341516 71183,6950.157,96.106,573.911,570.134,0.0
55393.0,STARLINK-4786,PAYLOAD,2024-05-11 20:27:21,14.9836308,0.0002179,70.0008,305.643,256.1507,103.941,0.00037064,4.336e-05,0.0,0 STARLINK-4786,1 55393U 23014C   24132.85233355  .00004336  00000-0  37064-3 0  9990,2 55393  70.0008 305.6430 0002179 256.1507 103.9410 14.98363080 71231,6950.091,96.105,573.47,570.441,0.0
55393.0,STARLINK-4786,PAYLOAD,2024-05-11 22:03:29,14.98365575,0.0002268,70.0004,305.4736,257.7288,102.3617,0.00038829,4.547e-05,0.0,0 STARLINK-4786,1 55393U 23014C   24132.91909000  .00004547  00000-0  38829-3 0  9998,2 55393  70.0004 305.4736 0002268 257.7288 102.3617 14.98365575 72184,6950.083,96.105,573.524,570.372,0.0
55393.0,STARLINK-4786,PAYLOAD,2024-05-12 04:28:08,14.9828388,0.0002627,69.9994,304.8008,262.5652,97.5208,-0.00056243,-6.789e-05,0.0,0 STARLINK-4786,1 55393U 23014C   24133.18620583 -.00006789  00000-0 -56243-3 0  9996,2 55393  69.9994 304.8008 0002627 262.5652  97.5208 14.98283880 71281,6950.336,96.11,574.026,570.375,0.0
55393.0,STARLINK-4786,PAYLOAD,2024-05-12 14:04:57,14.98279669,0.0003042,69.9991,303.7899,265.1284,94.9527,-0.00046701,-5.654e-05,0.0,0 STARLINK-4786,1 55393U 23014C   24133.58677428 -.00005654  00000-0 -46701-3 0  9998,2 55393  69.9991 303.7899 0003042 265.1284  94.9527 14.98279669 72282,6950.349,96.11,574.328,570.099,0.0
55393.0,STARLINK-4786,PAYLOAD,2024-05-12 20:29:27,14.98314111,0.0003282,70.0001,303.1177,244.9278,115.1541,-3.0264e-05,-4.54e-06,0.0,0 STARLINK-4786,1 55393U 23014C   24133.85378742 -.00000454  00000-0 -30264-4 0  9996,2 55393  70.0001 303.1177 0003282 244.9278 115.1541 14.98314111 71388,6950.242,96.108,574.388,569.826,0.0
55393.0,STARLINK-4786,PAYLOAD,2024-05-13 12:30:47,14.98344538,0.0003254,69.9983,301.4326,267.2822,92.7965,-0.00017421,-2.172e-05,0.0,0 STARLINK-4786,1 55393U 23014C   24134.52137830 -.00002172  00000-0 -17421-3 0  9990,2 55393  69.9983 301.4326 0003254 267.2822  92.7965 14.98344538 71480,6950.148,96.106,574.275,569.751,0.0
55393.0,STARLINK-4786,PAYLOAD,2024-05-13 17:19:11,14.98346093,0.0002889,69.9989,300.9278,262.6958,97.3873,-0.00017491,-2.18e-05,0.0,0 STARLINK-4786,1 55393U 23014C   24134.72165630 -.00002180  00000-0 -17491-3 0  9997,2 55393  69.9989 300.9278 0002889 262.6958  97.3873 14.98346093 72453,6950.143,96.106,574.016,570.0,0.0
55393.0,STARLINK-4786,PAYLOAD,2024-05-14 12:32:47,14.98314482,0.0003052,69.9983,298.9079,261.061,99.0203,0.00058353,6.874e-05,0.0,0 STARLINK-4786,1 55393U 23014C   24135.52277751  .00006874  00000-0  58353-3 0  9998,2 55393  69.9983 298.9079 0003052 261.0610  99.0203 14.98314482 71635,6950.241,96.108,574.227,569.985,0.0
55393.0,STARLINK-4786,PAYLOAD,2024-05-14 17:21:11,14.9832065,0.0003098,69.9983,298.4026,260.7858,99.295,0.00057363,6.756e-05,0.0,0 STARLINK-4786,1 55393U 23014C   24135.72305539  .00006756  00000-0  57363-3 0  9995,2 55393  69.9983 298.4026 0003098 260.7858  99.2950 14.98320650 72605,6950.222,96.108,574.24,569.934,0.0
55393.0,STARLINK-4786,PAYLOAD,2024-05-15 04:34:07,14.98347705,0.0002916,69.9994,297.223,253.6945,106.3893,0.00027454,3.186e-05,0.0,0 STARLINK-4786,1 55393U 23014C   24136.19036393  .00003186  00000-0  27454-3 0  9998,2 55393  69.9994 297.2230 0002916 253.6945 106.3893 14.98347705 71736,6950.138,96.106,574.03,569.976,0.0
55393.0,STARLINK-4786,PAYLOAD,2024-05-15 12:34:46,14.98367428,0.0003082,69.998,296.3824,263.1395,96.9413,0.00030939,3.604e-05,0.0,0 STARLINK-4786,1 55393U 23014C   24136.52414398  .00003604  00000-0  30939-3 0  9997,2 55393  69.9980 296.3824 0003082 263.1395  96.9413 14.98367428 71781,6950.077,96.105,574.084,569.8,0.0
